ASTROCAST-0402          
1 55109U 23001DE  26068.80661100  .00010930  00000+0  41835-3 0  9996
2 55109  97.5556 160.6821 0004209 216.6984 143.3966 15.26734153129364
STARLINK-31573          
1 59334U 24057Q   26068.36056542  .00002727  00000+0  10867-3 0  9997
2 59334  43.0023 188.5038 0001438 261.0470  99.0218 15.27550253109797
