[{"OBJECT_NAME":"ASTROCAST-0402","OBJECT_ID":"2023-001DE","EPOCH":"2026-03-09T19:21:31.190400","MEAN_MOTION":15.26734153,"ECCENTRICITY":0.00042092,"INCLINATION":97.5556,"RA_OF_ASC_NODE":160.6821,"ARG_OF_PERICENTER":216.6984,"MEAN_ANOMALY":143.3966,"EPHEMERIS_TYPE":0,"CLASSIFICATION_TYPE":"U","NORAD_CAT_ID":55109,"ELEMENT_SET_NO":999,"REV_AT_EPOCH":12936,"BSTAR":0.00041835119,"MEAN_MOTION_DOT":0.0001093,"MEAN_MOTION_DDOT":0},{"OBJECT_NAME":"STARLINK-31573","OBJECT_ID":"2024-057Q","EPOCH":"2026-03-09T08:39:12.852288","MEAN_MOTION":15.27550253,"ECCENTRICITY":0.00014389,"INCLINATION":43.0023,"RA_OF_ASC_NODE":188.5038,"ARG_OF_PERICENTER":261.047,"MEAN_ANOMALY":99.0218,"EPHEMERIS_TYPE":0,"CLASSIFICATION_TYPE":"U","NORAD_CAT_ID":59334,"ELEMENT_SET_NO":999,"REV_AT_EPOCH":10979,"BSTAR":0.00010866706,"MEAN_MOTION_DOT":2.727e-5,"MEAN_MOTION_DDOT":0}]
